NORAD_CAT_ID,OBJECT_NAME,OBJECT_TYPE,EPOCH,MEAN_MOTION,ECCENTRICITY,INCLINATION,RA_OF_ASC_NODE,ARG_OF_PERICENTER,MEAN_ANOMALY,BSTAR,MEAN_MOTION_DOT,MEAN_MOTION_DDOT,TLE_LINE0,TLE_LINE1,TLE_LINE2,SEMIMAJOR_AXIS,PERIOD,APOGEE,PERIGEE,DECAYED
49767.0,STARLINK-3192,PAYLOAD,2022-11-16 13:35:52,15.08839997,0.000198,53.2154,167.0959,51.1421,308.9748,9.9826e-05,1.301e-05,0.0,0 STARLINK-3192,1 49767U 21115AV  22320.56657781  .00001301  00000-0  99826-4 0  9990,2 49767  53.2154 167.0959 0001980  51.1421 308.9748 15.08839997 53145,6917.88,95.438,541.115,538.376,0.0
49767.0,STARLINK-3192,PAYLOAD,2022-11-16 19:57:24,15.08846018,0.0001977,53.2155,165.9065,51.8733,308.2437,7.477e-05,9.02e-06,0.0,0 STARLINK-3192,1 49767U 21115AV  22320.83153392  .00000902  00000-0  74770-4 0  9996,2 49767  53.2155 165.9065 0001977  51.8733 308.2437 15.08846018 54297,6917.861999999999,95.437,541.095,538.359,0.0
49767.0,STARLINK-3192,PAYLOAD,2022-11-17 13:26:38,15.08847467,0.0001955,53.2154,162.6351,51.9259,308.1909,0.000133,1.83e-05,0.0,0 STARLINK-3192,1 49767U 21115AV  22321.56016837  .00001830  00000-0  13300-3 0  9991,2 49767  53.2154 162.6351 0001955  51.9259 308.1909 15.08847467 53299,6917.858,95.437,541.075,538.37,0.0
49767.0,STARLINK-3192,PAYLOAD,2022-11-17 21:23:34,15.08840555,0.000201,53.2154,161.1487,52.018,308.0993,0.00010765,1.426e-05,0.0,0 STARLINK-3192,1 49767U 21115AV  22321.89137297  .00001426  00000-0  10765-3 0  9994,2 49767  53.2154 161.1487 0002010  52.0180 308.0993 15.08840555 54453,6917.879,95.438,541.134,538.3530000000002,0.0
49767.0,STARLINK-3192,PAYLOAD,2022-11-18 06:55:53,15.08836731,0.0002043,53.2156,159.3649,49.0776,311.0392,3.251e-05,2.29e-06,0.0,0 STARLINK-3192,1 49767U 21115AV  22322.28881713  .00000229  00000-0  32510-4 0  9990,2 49767  53.2156 159.3649 0002043  49.0776 311.0392 15.08836731 54512,6917.89,95.438,541.169,538.342,0.0
49767.0,STARLINK-3192,PAYLOAD,2022-11-18 19:38:58,15.08841608,0.0002023,53.2155,156.9856,50.3312,309.7858,5.6616e-05,6.13e-06,0.0,0 STARLINK-3192,1 49767U 21115AV  22322.81873360  .00000613  00000-0  56616-4 0  9998,2 49767  53.2155 156.9856 0002023  50.3312 309.7858 15.08841608 53488,6917.875,95.437,541.14,538.341,0.0
49767.0,STARLINK-3192,PAYLOAD,2022-11-18 22:49:44,15.08844006,0.0002011,53.2156,156.3905,50.6597,309.4573,2.6843e-05,1.39e-06,0.0,0 STARLINK-3192,1 49767U 21115AV  22322.95121235  .00000139  00000-0  26843-4 0  9992,2 49767  53.2156 156.3905 0002011  50.6597 309.4573 15.08844006 54615,6917.868,95.437,541.124,538.342,0.0
49767.0,STARLINK-3192,PAYLOAD,2022-11-19 19:29:44,15.08848017,0.0001989,53.2151,152.5249,49.583,310.5335,6.0532e-05,6.75e-06,0.0,0 STARLINK-3192,1 49767U 21115AV  22323.81232527  .00000675  00000-0  60532-4 0  9993,2 49767  53.2151 152.5249 0001989  49.5830 310.5335 15.08848017 53635,6917.856,95.437,541.097,538.345,0.0
49767.0,STARLINK-3192,PAYLOAD,2022-11-20 11:23:37,15.08834613,0.0002031,53.2152,149.5512,52.8675,307.2502,2.14e-05,5.2e-07,0.0,0 STARLINK-3192,1 49767U 21115AV  22324.47473674  .00000052  00000-0  21400-4 0  9996,2 49767  53.2152 149.5512 0002031  52.8675 307.2502 15.08834613 54848,6917.897,95.438,541.1669999999998,538.357,0.0
49767.0,STARLINK-3192,PAYLOAD,2022-11-20 19:20:33,15.08833288,0.0002029,53.2157,148.0642,53.1652,306.9526,3.4165e-06,-2.34e-06,0.0,0 STARLINK-3192,1 49767U 21115AV  22324.80593822 -.00000234  00000-0  34165-5 0  9997,2 49767  53.2157 148.0642 0002029  53.1652 306.9526 15.08833288 53788,6917.901,95.438,541.17,538.362,0.0
49767.0,STARLINK-3192,PAYLOAD,2022-11-21 12:49:47,15.0883772,0.0001952,53.2154,144.793,51.0367,309.0799,-6.3599e-06,-3.89e-06,0.0,0 STARLINK-3192,1 49767U 21115AV  22325.53457731 -.00000389  00000-0 -63599-5 0  9991,2 49767  53.2154 144.7930 0001952  51.0367 309.0799 15.08837720 53895,6917.887,95.438,541.1030000000002,538.4019999999998,0.0
49767.0,STARLINK-3192,PAYLOAD,2022-11-21 16:00:33,15.08838714,0.0001973,53.2156,144.1983,51.7637,308.3533,7.7555e-07,-2.76e-06,0.0,0 STARLINK-3192,1 49767U 21115AV  22325.66705664 -.00000276  00000-0  77555-6 0  9998,2 49767  53.2156 144.1983 0001973  51.7637 308.3533 15.08838714 55028,6917.884,95.438,541.114,538.384,0.0
49767.0,STARLINK-3192,PAYLOAD,2022-11-21 20:46:43,15.08840112,0.0001998,53.2155,143.3062,52.3228,307.7945,1.1976e-05,-9.8e-07,0.0,0 STARLINK-3192,1 49767U 21115AV  22325.86577552 -.00000098  00000-0  11976-4 0  9998,2 49767  53.2155 143.3062 0001998  52.3228 307.7945 15.08840112 53940,6917.88,95.438,541.127,538.363,0.0
49767.0,STARLINK-3192,PAYLOAD,2022-11-22 11:05:11,15.08836896,0.0002038,53.2157,140.6297,52.5942,307.5235,8.9595e-05,1.138e-05,0.0,0 STARLINK-3192,1 49767U 21115AV  22326.46193609  .00001138  00000-0  89595-4 0  9999,2 49767  53.2157 140.6297 0002038  52.5942 307.5235 15.08836896 54038,6917.89,95.438,541.165,538.345,0.0
49767.0,STARLINK-3192,PAYLOAD,2022-11-22 17:26:43,15.08838762,0.0002056,53.2157,139.4402,53.1264,306.9917,0.00010009,1.305e-05,0.0,0 STARLINK-3192,1 49767U 21115AV  22326.72689518  .00001305  00000-0  10009-3 0  9996,2 49767  53.2157 139.4402 0002056  53.1264 306.9917 15.08838762 55187,6917.884,95.438,541.1709999999998,538.327,0.0
49767.0,STARLINK-3192,PAYLOAD,2022-11-22 19:02:06,15.08839128,0.0002071,53.2158,139.1429,53.0715,307.0467,9.9153e-05,1.29e-05,0.0,0 STARLINK-3192,1 49767U 21115AV  22326.79313465  .00001290  00000-0  99153-4 0  9999,2 49767  53.2158 139.1429 0002071  53.0715 307.0467 15.08839128 54088,6917.8830000000025,95.438,541.181,538.315,0.0
49767.0,STARLINK-3192,PAYLOAD,2022-11-23 12:31:21,15.08840899,0.0002082,53.2161,135.8716,57.4197,302.6996,6.871399999999999e-05,8.06e-06,0.0,0 STARLINK-3192,1 49767U 21115AV  22327.52177464  .00000806  00000-0  68714-4 0  9999,2 49767  53.2161 135.8716 0002082  57.4197 302.6996 15.08840899 54195,6917.878000000002,95.437,541.183,538.302,0.0
49767.0,STARLINK-3192,PAYLOAD,2022-11-23 17:17:31,15.08836099,0.0002,53.2161,134.9791,54.9559,305.1621,5.1362e-06,-2.06e-06,0.0,0 STARLINK-3192,1 49767U 21115AV  22327.72049947 -.00000206  00000-0  51362-5 0  9992,2 49767  53.2161 134.9791 0002000  54.9559 305.1621 15.08836099 55339,6917.892,95.438,541.141,538.374,0.0
49767.0,STARLINK-3192,PAYLOAD,2022-11-24 10:46:45,15.08834686,0.0001938,53.2155,131.7073,53.1662,306.9508,-2.0474e-05,-6.14e-06,0.0,0 STARLINK-3192,1 49767U 21115AV  22328.44914329 -.00000614  00000-0 -20474-4 0  9990,2 49767  53.2155 131.7073 0001938  53.1662 306.9508 15.08834686 54337,6917.897,95.438,541.102,538.4209999999998,0.0
49767.0,STARLINK-3192,PAYLOAD,2022-11-24 18:43:41,15.08839814,0.0001958,53.2159,130.2209,54.0405,306.0768,-1.6056e-05,-5.44e-06,0.0,0 STARLINK-3192,1 49767U 21115AV  22328.78033982 -.00000544  00000-0 -16056-4 0  9997,2 49767  53.2159 130.2209 0001958  54.0405 306.0768 15.08839814 55498,6917.880999999999,95.438,541.1,538.391,0.0
49767.0,STARLINK-3192,PAYLOAD,2022-11-25 10:37:32,15.08838204,0.0001918,53.2164,127.2475,53.6046,306.5122,1.9815e-05,2.7e-07,0.0,0 STARLINK-3192,1 49767U 21115AV  22329.44273936  .00000027  00000-0  19815-4 0  9996,2 49767  53.2164 127.2475 0001918  53.6046 306.5122 15.08838204 54486,6917.886,95.438,541.078,538.424,0.0
49767.0,STARLINK-3192,PAYLOAD,2022-11-25 16:59:05,15.08841184,0.0001939,53.2162,126.0578,53.3178,306.7993,4.5153e-05,4.31e-06,0.0,0 STARLINK-3192,1 49767U 21115AV  22329.70769679  .00000431  00000-0  45153-4 0  9992,2 49767  53.2162 126.0578 0001939  53.3178 306.7993 15.08841184 54525,6917.877,95.437,541.0830000000002,538.4,0.0
49767.0,STARLINK-3192,PAYLOAD,2022-11-26 04:06:46,15.08843994,0.0002078,53.2162,123.9769,54.8975,305.2212,0.00013603,1.878e-05,0.0,0 STARLINK-3192,1 49767U 21115AV  22330.17137238  .00001878  00000-0  13603-3 0  9995,2 49767  53.2162 123.9769 0002078  54.8975 305.2212 15.08843994 55709,6917.868,95.437,541.1709999999998,538.2959999999998,0.0
49767.0,STARLINK-3192,PAYLOAD,2022-11-26 20:00:38,15.08839584,0.000206,53.2163,121.0032,54.2607,305.8577,4.4812e-05,4.25e-06,0.0,0 STARLINK-3192,1 49767U 21115AV  22330.83377697  .00000425  00000-0  44812-4 0  9997,2 49767  53.2163 121.0032 0002060  54.2607 305.8577 15.08839584 55800,6917.882,95.438,541.172,538.322,0.0
49767.0,STARLINK-3192,PAYLOAD,2022-11-27 10:19:06,15.08846392,0.0002081,53.2163,118.3272,53.0623,307.0559,-1.5474e-06,-3.13e-06,0.0,0 STARLINK-3192,1 49767U 21115AV  22331.42993366 -.00000313  00000-0 -15474-5 0  9991,2 49767  53.2163 118.3272 0002081  53.0623 307.0559 15.08846392 54788,6917.861,95.437,541.165,538.286,0.0
49767.0,STARLINK-3192,PAYLOAD,2022-11-27 19:51:25,15.08836273,0.0002051,53.2162,116.5421,54.3618,305.7565,-7.1338e-05,-1.423e-05,0.0,0 STARLINK-3192,1 49767U 21115AV  22331.82737961 -.00001423  00000-0 -71338-4 0  9995,2 49767  53.2162 116.5421 0002051  54.3618 305.7565 15.08836273 54844,6917.892,95.438,541.1759999999998,538.3380000000002,0.0
49767.0,STARLINK-3192,PAYLOAD,2022-11-28 10:09:53,15.08837665,0.0001976,53.2158,113.8661,50.16,309.9566,6.8563e-07,-2.77e-06,0.0,0 STARLINK-3192,1 49767U 21115AV  22332.42353745 -.00000277  00000-0  68563-6 0  9999,2 49767  53.2158 113.8661 0001976  50.1600 309.9566 15.08837665 56042,6917.888000000001,95.438,541.12,538.386,0.0
49767.0,STARLINK-3192,PAYLOAD,2022-11-29 02:03:45,15.08831127,0.0002077,53.2161,110.8924,56.0572,304.0617,-3.5323e-05,-8.5e-06,0.0,0 STARLINK-3192,1 49767U 21115AV  22333.08594406 -.00000850  00000-0 -35323-4 0  9997,2 49767  53.2161 110.8924 0002077  56.0572 304.0617 15.08831127 56142,6917.908,95.438,541.2090000000002,538.336,0.0
49767.0,STARLINK-3192,PAYLOAD,2022-11-29 08:25:18,15.08833841,0.0002005,53.2164,109.7019,52.5455,307.5719,-1.3913e-05,-5.1e-06,0.0,0 STARLINK-3192,1 49767U 21115AV  22333.35090292 -.00000510  00000-0 -13913-4 0  9995,2 49767  53.2164 109.7019 0002005  52.5455 307.5719 15.08833841 55076,6917.899,95.438,541.151,538.377,0.0
